STARLINK-30607          
1 58099U 23161C   26068.50404501 -.00003146  00000+0 -94150-4 0  9993
2 58099  53.1607 156.3689 0001117  60.8996 299.2117 15.30198522134523
2025-313BD              
1 67299U 25313BD  26068.62968741  .00081010  00000+0  27634-2 0  9995
2 67299  97.3970 145.2850 0007287 333.4514  26.6352 15.30002360 10838
